     2.100          NAVIGATION                              RINEX VERSION / TYPE
fic2rin                                 04/15/2012 00:10:00 PGM / RUN BY / DATE
                                                            END OF HEADER
26 12  4 14 12  0  0.0 -.301207415760D-03 -.534328137292D-10  .000000000000D+00
     .260000000000D+02  .295937500000D+02  .404623997071D-08 -.441260202613D+00
     .168383121490D-05  .209589796141D-01  .944919884205D-05  .515366300583D+04
     .561600000000D+06 -.128522515297D-06  .182439349183D+01  .219792127609D-06
     .983503185461D+00  .211343750000D+03  .118570134698D+01 -.819176979152D-08
    -.311798701953D-09  .100000000000D+01  .168300000000D+04  .000000000000D+00
     .240000000000D+01  .000000000000D+00 -.605359673500D-08  .260000000000D+02
     .554406000000D+06  .400000000000D+01
27 12  4 14 12  0  0.0  .377307180315D-03  .397903932026D-11  .000000000000D+00
     .760000000000D+02  .473125000000D+02  .408517016373D-08  .473818480213D+00
     .222586095333D-05  .217552870745D-01  .789761543274D-05  .515374685287D+04
     .561600000000D+06 -.391155481339D-07  .274838656545D+01 -.333413481712D-06
     .982128361383D+00  .245437500000D+03 -.109690187871D+01 -.832106089130D-08
     .435732435719D-10  .100000000000D+01  .168300000000D+04  .000000000000D+00
     .340000000000D+01  .000000000000D+00 -.419095158577D-08  .760000000000D+02
     .554406000000D+06  .400000000000D+01
28 12  4 14 12  0  0.0  .133329536766D-03  .409272615798D-11  .000000000000D+00
     .300000000000D+02 -.402812500000D+02  .429803617332D-08  .151264716911D+01
    -.231154263020D-05  .178674866911D-01  .516138970852D-05  .515370761681D+04
     .561600000000D+06 -.318512320518D-06 -.240143353481D+01 -.372529029846D-06
     .978509763294D+00  .291093750000D+03 -.182939022019D+01 -.821391357104D-08
     .660741808263D-10  .100000000000D+01  .168300000000D+04  .000000000000D+00
     .240000000000D+01  .000000000000D+00 -.107102096081D-07  .300000000000D+02
     .554406000000D+06  .400000000000D+01
29 12  4 14 12  0  0.0  .303253531456D-03  .363797880709D-11  .000000000000D+00
     .940000000000D+02 -.755937500000D+02  .435982446133D-08 -.254124010108D+01
    -.383891165257D-05  .232141709421D-02  .925734639168D-05  .515360609245D+04
     .561600000000D+06  .149011611938D-07 -.135874232233D+01  .447034835815D-07
     .962937344126D+00  .198406250000D+03 -.116549337783D+01 -.796568894578D-08
     .625026034843D-10  .100000000000D+01  .168300000000D+04  .000000000000D+00
     .240000000000D+01  .000000000000D+00 -.931322574615D-08  .940000000000D+02
     .554406000000D+06  .400000000000D+01
30 12  4 14 12  0  0.0 -.130427069962D-03 -.189857018995D-10  .000000000000D+00
     .690000000000D+02 -.116250000000D+02  .478234206089D-08  .811748707586D+00
    -.720843672752D-06  .109603615711D-01  .449083745480D-05  .515363823700D+04
     .561600000000D+06 -.838190317154D-07 -.255038141241D+01 -.838190317154D-07
     .959473225797D+00  .295531250000D+03  .155754595946D+01 -.855571352267D-08
     .782175437889D-10  .100000000000D+01  .168300000000D+04  .000000000000D+00
     .136500000000D+02  .000000000000D+00 -.419095158577D-08  .690000000000D+02
     .554406000000D+06  .400000000000D+01
32 12  4 14 12  0  0.0 -.432545784861D-03 -.443378667114D-11  .000000000000D+00
     .760000000000D+02  .100000000000D+02  .508771192362D-08 -.129711132745D+01
     .545755028725D-06  .118257977301D-01  .635907053947D-05  .515370183945D+04
     .561600000000D+06 -.763684511185D-07  .779312226694D+00 -.229105353355D-06
     .952150331877D+00  .252531250000D+03 -.591162625485D+00 -.851999774925D-08
    -.460733477113D-10  .100000000000D+01  .168300000000D+04  .000000000000D+00
     .240000000000D+01  .000000000000D+00 -.279396772385D-08  .760000000000D+02
     .554406000000D+06  .400000000000D+01
22 12  4 14 11 59 44.0  .143318437040D-03  .113686837722D-12  .000000000000D+00
     .000000000000D+00  .182500000000D+02  .568523681293D-08  .158593929027D+01
     .886619091034D-06  .591666728724D-02  .593438744545D-05  .515367874718D+04
     .561584000000D+06 -.141561031342D-06  .705075443737D+00 -.745058059692D-07
     .927977320769D+00  .250750000000D+03 -.201207997998D+01 -.869250493486D-08
    -.113576159474D-09  .100000000000D+01  .168300000000D+04  .000000000000D+00
     .240000000000D+01  .000000000000D+00 -.167638063431D-07  .000000000000D+00
     .555036000000D+06  .400000000000D+01
15 12  4 14 11 59 44.0 -.914237461984D-04  .113686837722D-12  .000000000000D+00
     .160000000000D+02  .110625000000D+02  .483984445609D-08  .919276289262D-01
     .452622771263D-06  .438168132678D-02  .897794961929D-05  .515354309654D+04
     .561584000000D+06  .633299350739D-07  .171744743472D+01 -.204890966415D-07
     .945683227479D+00  .195906250000D+03  .493805656988D-01 -.829427406124D-08
    -.423946230491D-09  .100000000000D+01  .168300000000D+04  .000000000000D+00
     .240000000000D+01  .000000000000D+00 -.102445483208D-07  .160000000000D+02
     .557136000000D+06  .400000000000D+01
19 12  4 14 11 59 44.0 -.255476683378D-03 -.375166564481D-11  .000000000000D+00
     .500000000000D+01 -.567187500000D+02  .454090343257D-08  .103691358430D+00
    -.293552875519D-05  .811587437056D-02  .869296491146D-05  .515377779007D+04
     .561584000000D+06  .117346644402D-06 -.131411465020D+01  .204890966415D-07
     .959806961298D+00  .211875000000D+03  .146457133762D+00 -.816355433052D-08
     .157149403046D-10  .100000000000D+01  .168300000000D+04  .000000000000D+00
     .240000000000D+01  .000000000000D+00 -.144354999065D-07  .500000000000D+01
     .557436000000D+06  .400000000000D+01
15 12  4 14 13 59 44.0 -.914232805371D-04  .113686837722D-12  .000000000000D+00
     .170000000000D+02  .133750000000D+02  .489484674716D-08  .114218222882D+01
     .897794961929D-06  .438222277444D-02  .865943729877D-05  .515354396248D+04
     .568784000000D+06  .633299350739D-07  .171738792321D+01  .167638063431D-07
     .945680215331D+00  .200843750000D+03  .493885151956D-01 -.826891586211D-08
    -.435732435719D-09  .100000000000D+01  .168300000000D+04  .000000000000D+00
     .240000000000D+01  .000000000000D+00 -.102445483208D-07  .170000000000D+02
     .561606000000D+06  .400000000000D+01
19 12  4 14 13 59 44.0 -.255503691733D-03 -.375166564481D-11  .000000000000D+00
     .600000000000D+01 -.641875000000D+02  .452054544172D-08  .115388887965D+01
    -.328011810780D-05  .811507797334D-02  .867061316967D-05  .515377585411D+04
     .568784000000D+06 -.186264514923D-08 -.131417247935D+01  .115483999252D-06
     .959807128071D+00  .212531250000D+03  .146377161882D+00 -.805997858760D-08
    -.739316509786D-10  .100000000000D+01  .168300000000D+04  .000000000000D+00
     .240000000000D+01  .000000000000D+00 -.144354999065D-07  .600000000000D+01
     .561606000000D+06  .400000000000D+01
22 12  4 14 13 59 44.0  .143318902701D-03  .113686837722D-12  .000000000000D+00
     .100000000000D+01  .170000000000D+02  .563273462601D-08  .263623081275D+01
     .828877091408D-06  .591705914121D-02  .606477260590D-05  .515367736244D+04
     .568784000000D+06  .409781932831D-07  .705013617893D+00 -.763684511185D-07
     .927977288585D+00  .245687500000D+03 -.201218513161D+01 -.851749764511D-08
    -.113933317209D-09  .100000000000D+01  .168300000000D+04  .000000000000D+00
     .240000000000D+01  .000000000000D+00 -.167638063431D-07  .100000000000D+01
     .561606000000D+06  .400000000000D+01
 1 12  4 14 14  0  0.0  .247884541750D-03  .443378667114D-11  .000000000000D+00
     .250000000000D+02  .136250000000D+02  .459090551536D-08 -.530755303060D+00
     .735744833946D-06  .599096412770D-03  .940635800362D-05  .515365682220D+04
     .568800000000D+06  .372529029846D-08 -.359736103904D+00 -.447034835815D-07
     .960379734688D+00  .199281250000D+03  .472279717146D+00 -.801104797802D-08
     .271439877989D-09  .100000000000D+01  .168300000000D+04  .000000000000D+00
     .240000000000D+01  .000000000000D+00  .838190317154D-08  .250000000000D+02
     .561606000000D+06  .400000000000D+01
 2 12  4 14 14  0  0.0  .386638566852D-03  .136424205266D-11  .000000000000D+00
     .720000000000D+02  .254062500000D+02  .523021785957D-08  .636900985985D+00
     .133551657200D-05  .111389014637D-01  .881031155586D-05  .515367576790D+04
     .568800000000D+06  .447034835815D-07 -.372526997930D+00  .244006514549D-06
     .938927925294D+00  .199781250000D+03 -.281335671327D+01 -.840034990829D-08
     .231795369493D-09  .100000000000D+01  .168300000000D+04  .000000000000D+00
     .240000000000D+01  .000000000000D+00 -.172294676304D-07  .720000000000D+02
     .561606000000D+06  .400000000000D+01
 3 12  4 14 14  0  0.0  .358293764293D-04  .500222085975D-11  .000000000000D+00
     .810000000000D+02 -.706875000000D+02  .529593488266D-08  .795549076921D+00
    -.370852649212D-05  .151426186785D-01  .803358852863D-05  .515371429253D+04
     .568800000000D+06 -.201165676117D-06 -.153597569612D+01 -.167638063431D-07
     .930607230544D+00  .212656250000D+03  .118066281281D+01 -.871429155665D-08
    -.139648674071D-09  .100000000000D+01  .168300000000D+04  .000000000000D+00
     .340000000000D+01  .000000000000D+00 -.419095158577D-08  .810000000000D+02
     .561606000000D+06  .400000000000D+01
 4 12  4 14 14  0  0.0  .153223052621D-03  .113686837722D-10  .000000000000D+00
     .186000000000D+03  .271562500000D+02  .513878547961D-08 -.251473383072D+01
     .110827386379D-05  .998881994747D-02  .895559787750D-05  .515358635330D+04
     .568800000000D+06  .109896063805D-06 -.355574960702D+00 -.987201929092D-07
     .937996039163D+00  .192625000000D+03  .846368137282D+00 -.818212653270D-08
     .365015204348D-09  .100000000000D+01  .168300000000D+04  .000000000000D+00
     .240000000000D+01  .000000000000D+00 -.605359673500D-08  .186000000000D+03
     .561606000000D+06  .400000000000D+01
